NORAD_CAT_ID,OBJECT_NAME,OBJECT_TYPE,EPOCH,MEAN_MOTION,ECCENTRICITY,INCLINATION,RA_OF_ASC_NODE,ARG_OF_PERICENTER,MEAN_ANOMALY,BSTAR,MEAN_MOTION_DOT,MEAN_MOTION_DDOT,TLE_LINE0,TLE_LINE1,TLE_LINE2,SEMIMAJOR_AXIS,PERIOD,APOGEE,PERIGEE,DECAYED
51118.0,STARLINK-3394,PAYLOAD,2022-05-18 12:00:00,15.08871915,0.0001668,53.2113,54.4159,54.4956,249.5007,0.00052645,8.108e-05,0.0,0 STARLINK-3394,1 51118U 22005Q   22138.50001157  .00008108  00000-0  52645-3 0  9992,2 51118  53.2113  54.4159 0001668  54.4956 249.5007 15.08871915 19962,6917.783,95.436,540.802,538.494,0.0
51118.0,STARLINK-3394,PAYLOAD,2022-05-18 14:00:01,15.08851923,0.0001601,53.2114,54.0413,56.4652,340.4467,0.0036366,0.00058085,0.0,0 STARLINK-3394,1 51118U 22005Q   22138.58334491  .00058085  00000-0  36366-2 0  9990,2 51118  53.2114  54.0413 0001601  56.4652 340.4467 15.08851923  1301,6917.844,95.437,540.816,538.601,0.0
51118.0,STARLINK-3394,PAYLOAD,2022-05-18 22:00:00,15.089319199999998,0.0001613,53.2127,52.5455,53.6679,354.8626,-0.0062859,-0.00099203,0.0,0 STARLINK-3394,1 51118U 22005Q   22138.91667824 -.00099203  00000-0 -62859-2 0  9991,2 51118  53.2127  52.5455 0001613  53.6679 354.8626 15.08931920  1307,6917.599,95.432,540.58,538.349,0.0
51118.0,STARLINK-3394,PAYLOAD,2022-05-19 06:00:00,15.08841512,0.0001581,53.2124,51.0498,44.9694,15.2386,-0.0017497,-0.00028028,0.0,0 STARLINK-3394,1 51118U 22005Q   22139.25001157 -.00028028  00000-0 -17497-2 0  9995,2 51118  53.2124  51.0498 0001581  44.9694  15.2386 15.08841512 20072,6917.876,95.437,540.8340000000002,538.6469999999998,0.0
51118.0,STARLINK-3394,PAYLOAD,2022-05-19 14:00:01,15.08783271,0.0001405,53.2126,49.5514,53.7376,18.1323,0.0034677,0.00055247,0.0,0 STARLINK-3394,1 51118U 22005Q   22139.58335648  .00055247  00000-0  34677-2 0  9996,2 51118  53.2126  49.5514 0001405  53.7376  18.1323 15.08783271  1300,6918.054,95.441,540.891,538.947,0.0
51118.0,STARLINK-3394,PAYLOAD,2022-05-19 22:00:00,15.08836618,0.0001543,53.2127,48.0559,53.5951,29.7556,-0.0011783,-0.0001899,0.0,0 STARLINK-3394,1 51118U 22005Q   22139.91667824 -.00018990  00000-0 -11783-2 0  9996,2 51118  53.2127  48.0559 0001543  53.5951  29.7556 15.08836618  1304,6917.891,95.438,540.823,538.688,0.0
51118.0,STARLINK-3394,PAYLOAD,2022-05-20 06:00:00,15.08816015,0.000165,53.2128,46.559,48.9846,45.9531,0.0008452999999999,0.00013182,0.0,0 STARLINK-3394,1 51118U 22005Q   22140.25001157  .00013182  00000-0  84530-3 0  9993,2 51118  53.2128  46.5590 0001650  48.9846  45.9531 15.08816015 20238,6917.954000000002,95.439,540.96,538.677,0.0
51118.0,STARLINK-3394,PAYLOAD,2022-05-20 14:00:01,15.088146900000002,0.0001536,53.2123,45.0618,58.9505,47.5778,0.0025297,0.00040174,0.0,0 STARLINK-3394,1 51118U 22005Q   22140.58334491  .00040174  00000-0  25297-2 0  9994,2 51118  53.2123  45.0618 0001536  58.9505  47.5778 15.08814690  1309,6917.958000000001,95.439,540.885,538.76,0.0
51118.0,STARLINK-3394,PAYLOAD,2022-05-20 22:00:00,15.08840627,0.0001669,53.2123,43.5664,59.1153,58.9981,-0.0011268,-0.00018177,0.0,0 STARLINK-3394,1 51118U 22005Q   22140.91667824 -.00018177  00000-0 -11268-2 0  9993,2 51118  53.2123  43.5664 0001669  59.1153  58.9981 15.08840627  1303,6917.878000000002,95.438,540.898,538.589,0.0
51118.0,STARLINK-3394,PAYLOAD,2022-05-21 06:00:00,15.08837126,0.0001735,53.2118,42.0704,54.0143,75.6738,-0.00049838,-8.211e-05,0.0,0 STARLINK-3394,1 51118U 22005Q   22141.25001157 -.00008211  00000-0 -49838-3 0  9995,2 51118  53.2118  42.0704 0001735  54.0143  75.6738 15.08837126  1309,6917.889,95.438,540.9540000000002,538.554,0.0
51118.0,STARLINK-3394,PAYLOAD,2022-05-21 14:00:01,15.08801064,0.0001505,53.2118,40.5721,60.9524,80.4023,0.004038,0.00064496,0.0,0 STARLINK-3394,1 51118U 22005Q   22141.58335648  .00064496  00000-0  40380-2 0  9993,2 51118  53.2118  40.5721 0001505  60.9524  80.4023 15.08801064 20433,6917.999,95.44,540.906,538.823,0.0
51118.0,STARLINK-3394,PAYLOAD,2022-05-21 22:00:00,15.08868874,0.0001589,53.2121,39.0768,58.0794,94.7896,-0.0034173,-0.00054308,0.0,0 STARLINK-3394,1 51118U 22005Q   22141.91667824 -.00054308  00000-0 -34173-2 0  9990,2 51118  53.2121  39.0768 0001589  58.0794  94.7896 15.08868874  1303,6917.792,95.436,540.756,538.558,0.0
51118.0,STARLINK-3394,PAYLOAD,2022-05-22 06:00:00,15.08827494,0.0001611,53.2122,37.5805,52.4466,112.0253,0.0018467,0.00029215,0.0,0 STARLINK-3394,1 51118U 22005Q   22142.25001157  .00029215  00000-0  18467-2 0  9994,2 51118  53.2122  37.5805 0001611  52.4466 112.0253 15.08827494 20539,6917.919,95.438,540.898,538.669,0.0
51118.0,STARLINK-3394,PAYLOAD,2022-05-22 14:00:01,15.08844575,0.0001549,53.2127,36.0823,62.2432,113.8275,-0.0015761,-0.00025287,0.0,0 STARLINK-3394,1 51118U 22005Q   22142.58334491 -.00025287  00000-0 -15761-2 0  9991,2 51118  53.2127  36.0823 0001549  62.2432 113.8275 15.08844575  1306,6917.866,95.437,540.803,538.66,0.0
51118.0,STARLINK-3394,PAYLOAD,2022-05-22 22:00:01,15.08826597,0.0001747,53.2132,34.5871,60.6226,127.108,5.434300000000001e-05,5.77e-06,0.0,0 STARLINK-3394,1 51118U 22005Q   22142.91668981  .00000577  00000-0  54343-4 0  9996,2 51118  53.2132  34.5871 0001747  60.6226 127.1080 15.08826597 20634,6917.920999999999,95.438,540.995,538.578,0.0
51118.0,STARLINK-3394,PAYLOAD,2022-05-23 14:00:01,15.08814841,0.0001628,53.213,31.5926,63.1128,147.7355,0.0017379,0.0002746,0.0,0 STARLINK-3394,1 51118U 22005Q   22143.58334491  .00027460  00000-0  17379-2 0  9992,2 51118  53.2130  31.5926 0001628  63.1128 147.7355 15.08814841  1302,6917.956999999999,95.439,540.9490000000002,538.696,0.0
51118.0,STARLINK-3394,PAYLOAD,2022-05-23 22:00:01,15.08821835,0.00018,53.2132,30.0977,59.9409,162.55200000000005,-0.00033696,-5.644e-05,0.0,0 STARLINK-3394,1 51118U 22005Q   22143.91668981 -.00005644  00000-0 -33696-3 0  9996,2 51118  53.2132  30.0977 0001800  59.9409 162.5520 15.08821835  1301,6917.936,95.439,541.0459999999998,538.556,0.0
51118.0,STARLINK-3394,PAYLOAD,2022-05-24 06:00:02,15.08835189,0.0001807,53.2131,28.6012,57.23,176.8247,-0.00015495,-2.753e-05,0.0,0 STARLINK-3394,1 51118U 22005Q   22144.25002315 -.00002753  00000-0 -15495-3 0  9992,2 51118  53.2131  28.6012 0001807  57.2300 176.8247 15.08835189 20831,6917.895,95.438,541.01,538.51,0.0
51118.0,STARLINK-3394,PAYLOAD,2022-05-24 14:00:01,15.0881214,0.0001681,53.2134,27.1031,63.0892,182.4969,0.0016045,0.0002532,0.0,0 STARLINK-3394,1 51118U 22005Q   22144.58334491  .00025320  00000-0  16045-2 0  9995,2 51118  53.2134  27.1031 0001681  63.0892 182.4969 15.08812140  1307,6917.965999999999,95.439,540.993,538.668,0.0
51118.0,STARLINK-3394,PAYLOAD,2022-05-24 22:00:00,15.08830576,0.0001781999999999,53.2136,25.6084,58.1941,198.9673,6.124e-05,6.86e-06,0.0,0 STARLINK-3394,1 51118U 22005Q   22144.91667824  .00000686  00000-0  61240-4 0  9998,2 51118  53.2136  25.6084 0001782  58.1941 198.9673 15.08830576  1309,6917.909000000002,95.438,541.007,538.5409999999998,0.0
51118.0,STARLINK-3394,PAYLOAD,2022-05-25 12:00:00,15.08807699,0.0001569,53.2139,22.9881,58.6555,128.7992,0.0027674,0.00043991,0.0,0 STARLINK-3394,1 51118U 22005Q   22145.50001157  .00043991  00000-0  27674-2 0  9992,2 51118  53.2139  22.9881 0001569  58.6555 128.7992 15.08807699 21022,6917.979,95.44,540.93,538.759,0.0
51118.0,STARLINK-3394,PAYLOAD,2022-05-25 14:00:01,15.08807227,0.0001594,53.214,22.6138,60.6707,219.6782,0.0034979,0.00055772,0.0,0 STARLINK-3394,1 51118U 22005Q   22145.58334491  .00055772  00000-0  34979-2 0  9996,2 51118  53.2140  22.6138 0001594  60.6707 219.6782 15.08807227  1309,6917.981,95.44,540.948,538.743,0.0
51118.0,STARLINK-3394,PAYLOAD,2022-05-25 20:42:41,15.08835791,0.0001619,53.2157,21.3588,57.6359,302.4790000000001,3.401e-05,2.53e-06,0.0,0 STARLINK-3394,1 51118U 22005Q   22145.86297964  .00000253  00000-0  34010-4 0  9992,2 51118  53.2157  21.3588 0001619  57.6359 302.4790 15.08835791 19967,6917.893,95.438,540.878,538.638,0.0
51118.0,STARLINK-3394,PAYLOAD,2022-05-26 06:00:00,15.08876338,0.0001645,53.214,19.6224,52.4247,251.108,-0.0037362,-0.00059319,0.0,0 STARLINK-3394,1 51118U 22005Q   22146.25001157 -.00059319  00000-0 -37362-2 0  9993,2 51118  53.2140  19.6224 0001645  52.4247 251.1080 15.08876338 21130,6917.769,95.435,540.7719999999998,538.496,0.0
51118.0,STARLINK-3394,PAYLOAD,2022-05-26 14:00:01,15.08834196,0.0001556,53.2144,18.1245,60.1358,255.0098,0.00052725,8.112e-05,0.0,0 STARLINK-3394,1 51118U 22005Q   22146.58334491  .00008112  00000-0  52725-3 0  9993,2 51118  53.2144  18.1245 0001556  60.1358 255.0098 15.08834196  1306,6917.898,95.438,540.84,538.687,0.0
51118.0,STARLINK-3394,PAYLOAD,2022-05-26 22:00:00,15.08824335,0.0001768,53.2145,16.6298,56.15,270.587,-6.0333e-06,-3.84e-06,0.0,0 STARLINK-3394,1 51118U 22005Q   22146.91667824 -.00000384  00000-0 -60333-5 0  9990,2 51118  53.2145  16.6298 0001768  56.1500 270.5870 15.08824335 21235,6917.928000000001,95.439,541.016,538.57,0.0
51118.0,STARLINK-3394,PAYLOAD,2022-05-26 22:08:51,15.08840699,0.0001834,53.2156,16.5998,66.9713,293.1472,6.9845e-05,8.24e-06,0.0,0 STARLINK-3394,1 51118U 22005Q   22146.92281702  .00000824  00000-0  69845-4 0  9991,2 51118  53.2156  16.5998 0001834  66.9713 293.1472 15.08840699 20129,6917.878000000002,95.438,541.012,538.475,0.0
51118.0,STARLINK-3394,PAYLOAD,2022-05-27 14:00:01,15.08836733,0.0001663,53.2145,13.6354,63.4442,286.4597,0.0007944,0.00012376,0.0,0 STARLINK-3394,1 51118U 22005Q   22147.58334491  .00012376  00000-0  79440-3 0  9994,2 51118  53.2145  13.6354 0001663  63.4442 286.4597 15.08836733  1308,6917.89,95.438,540.906,538.605,0.0
51118.0,STARLINK-3394,PAYLOAD,2022-05-27 21:59:38,15.0883841,0.0001607,53.2148,12.1397,55.5199,304.5945,7.1069e-05,8.43e-06,0.0,0 STARLINK-3394,1 51118U 22005Q   22147.91642039  .00000843  00000-0  71069-4 0  9997,2 51118  53.2148  12.1397 0001607  55.5199 304.5945 15.08838410 20271,6917.885,95.438,540.862,538.639,0.0
